DELTA 2 R/B(1)          
1 20453U 90008B   25340.61177454  .00062079  00000+0  10150-2 0  9992
2 20453  35.6069  60.0846 0111834 122.6518 238.5061 15.44538257911686
COSMOS 2058             
1 20465U 90010A   25340.39809201  .00007929  00000+0  48099-3 0  9992
2 20465  82.4642 139.2686 0008342 300.1610  59.8793 15.10378227928150
SL-14 R/B               
1 20466U 90010B   25340.47246815  .00000894  00000+0  10570-3 0  9995
2 20466  82.5021 354.9337 0018393 245.2353 114.6948 14.83462863914664
SL-14 R/B               
1 20511U 90018B   25340.60324044  .00000953  00000+0  11685-3 0  9994
2 20511  82.5204 310.1005 0017469  42.5521 317.7043 14.82036753908795
HST                     
1 20580U 90037B   25340.32599985  .00012669  00000+0  44335-3 0  9993
2 20580  28.4701 316.1394 0001971 164.3487 195.7169 15.27914955759015
SL-16 R/B               
1 20625U 90046B   25340.66636345  .00000170  00000+0  11237-3 0  9991
2 20625  70.9986 133.2759 0011889  84.6775 275.5704 14.15000194835236
COSMOS 2084             
1 20663U 90055A   25340.58810390  .00005316  00000+0  38283-3 0  9995
2 20663  62.7914 292.9524 0032677 173.9622 186.1879 15.04958958922306
SL-6 R/B(2)             
1 20666U 90055D   25340.64665002  .00003936  00000+0  30481-3 0  9991
2 20666  62.7826 210.1188 0012123 304.1199  55.8749 15.03036024924209
SL-8 R/B                
1 20775U 90078B   25340.60261741  .00034632  00000+0  10723-2 0  9998
2 20775  82.9042 334.8020 0373967 326.5501  31.2581 14.85562035795465
SL-8 R/B                
1 21088U 91006B   25340.64971919  .00000135  00000+0  12080-3 0  9997
2 21088  82.9431 239.2424 0021406 297.9127 125.2177 13.77489125751267
OKEAN-3                 
1 21397U 91039A   25340.62818616  .00005678  00000+0  40782-3 0  9995
2 21397  82.5178  66.9628 0012879 288.6207  71.3620 15.04058048851044
COSMOS 2151             
1 21422U 91042A   25340.61814606  .00003848  00000+0  30971-3 0  9998
2 21422  82.4958 173.4025 0013152  19.9118 340.2616 14.99652544849240
SL-14 R/B               
1 21423U 91042B   25340.63675707  .00000862  00000+0  10619-3 0  9998
2 21423  82.4919 307.4464 0016899 181.6134 178.5028 14.81730223839295
ERS-1                   
1 21574U 91050A   25340.61958651  .00000608  00000+0  20905-3 0  9991
2 21574  98.7906 351.5213 0032861 117.5941 242.8589 14.39357363802347
ARIANE 40 R/B           
1 21610U 91050F   25340.61436705  .00000739  00000+0  23405-3 0  9996
2 21610  98.2173  31.2657 0003168  18.5223 341.6082 14.42805760805571
INTERCOSMOS 25          
1 21819U 91086A   25340.52589722  .00003109  00000+0  61730-3 0  9991
2 21819  82.6071   6.3334 1486877 317.8003  31.7440 12.11697468485404
SL-8 R/B                
1 21876U 92008B   25340.44429435  .00000190  00000+0  17988-3 0  9997
2 21876  82.9263 337.1297 0035550  37.0288 116.5523 13.75957033696595
SL-8 R/B                
1 21938U 92020B   25340.65758133  .00000119  00000+0  10778-3 0  9994
2 21938  82.9312 222.8336 0028512 195.3290 223.4676 13.75525431688348
USA 81                  
1 21949U 92023A   25340.60693159  .00000335  00000+0  11684-3 0  9997
2 21949  85.0086 185.1131 0001668  62.3790 297.7572 14.32323670 81461
COSMOS 2219             
1 22219U 92076A   25340.64103213 -.00000134  00000+0 -45322-4 0  9993
2 22219  71.0589 212.5816 0018946 335.0833  24.9372 14.14063206705226
SL-16 R/B               
1 22220U 92076B   25340.58500058 -.00000079  00000+0 -15624-4 0  9996
2 22220  71.0014  24.4971 0015009 242.5410 229.9604 14.16841593708642
COSMOS 2221             
1 22236U 92080A   25340.59631878  .00003108  00000+0  27625-3 0  9991
2 22236  82.5040   8.2058 0015617 140.7443 219.4915 14.95725947766870
SL-16 R/B               
1 22285U 92093B   25340.59570095  .00000091  00000+0  71108-4 0  9996
2 22285  71.0202 199.6933 0002024  91.0409 269.0946 14.15426000699984
COSMOS 2228             
1 22286U 92094A   25340.60648403  .00003886  00000+0  33747-3 0  9990
2 22286  82.5173 326.4029 0016288 253.8567 106.0863 14.96685624762139
SL-16 R/B               
1 22566U 93016B   25340.62683066 -.00000177  00000+0 -66205-4 0  9990
2 22566  71.0089  50.6424 0007811 109.3347 250.8621 14.15287972689006
COSMOS 2242             
1 22626U 93024A   25340.54941402  .00003564  00000+0  31444-3 0  9995
2 22626  82.5190 355.7621 0014797 257.2637 102.6931 14.96068589766461
SL-16 R/B               
1 22803U 93059B   25340.52090961  .00000280  00000+0  16247-3 0  9999
2 22803  70.9898 207.5999 0017622 344.6763  15.3825 14.17212257666330
ARIANE 40 R/B           
1 22830U 93061H   25340.61257397  .00000560  00000+0  22136-3 0  9995
2 22830  98.5084  46.2539 0010527 194.1707 165.9183 14.32795419680770
COSMOS 2278             
1 23087U 94023A   25340.38281943 -.00000028  00000+0  98620-5 0  9990
2 23087  71.0549  10.3108 0008656 189.7803 170.3153 14.14351324631617
SL-16 R/B               
1 23088U 94023B   25340.54258288  .00000337  00000+0  19866-3 0  9990
2 23088  71.0007 266.4995 0001102  54.6686 305.4539 14.15000462632911
